SKYSAT-A                
1 39418U 13066C   26060.36480818  .00004355  00000+0  25412-3 0  9996
2 39418  97.3975 113.1666 0020800 330.7689  29.2376 15.12277656672182
SKYSAT-B                
1 40072U 14037D   26060.32225265  .00002054  00000+0  23219-3 0  9999
2 40072  98.3712  13.2445 0004156 269.6779  90.3959 14.87684836629924
SKYSAT-C1               
1 41601U 16040C   26060.02734942  .00010326  00000+0  31298-3 0  9995
2 41601  96.9717  97.6732 0004139  70.9612 289.2081 15.34300355541277
SKYSAT-C4               
1 41771U 16058B   26060.49574677  .00019700  00000+0  41863-3 0  9994
2 41771  96.9299  86.9717 0001013  71.5354 288.6006 15.45033120528823
SKYSAT-C5               
1 41772U 16058C   26060.08562854  .00009683  00000+0  29568-3 0  9991
2 41772  97.0637 105.5215 0002009  85.1273 275.0200 15.34092712527173
SKYSAT-C2               
1 41773U 16058D   26060.06382415  .00013382  00000+0  34344-3 0  9992
2 41773  97.0295  86.3588 0005391  87.5170 272.6694 15.39426096528400
SKYSAT-C3               
1 41774U 16058E   26060.09044634  .00022692  00000+0  43718-3 0  9993
2 41774  96.9191  95.3279 0001562  97.2200 262.9229 15.47869697529368
SKYSAT-C11              
1 42987U 17068A   26060.39988051  .00031020  00000+0  51978-3 0  9997
2 42987  97.4181 205.1145 0000742  86.1740 273.9597 15.51795769466495
SKYSAT-C10              
1 42988U 17068B   26060.37437855  .00013475  00000+0  43244-3 0  9998
2 42988  97.4316 196.4489 0001198  93.1776 266.9602 15.32437382465831
SKYSAT-C9               
1 42989U 17068C   26060.32405865  .00018155  00000+0  47788-3 0  9997
2 42989  97.4240 196.3648 0009554 160.4510 199.7104 15.38560862466154
SKYSAT-C8               
1 42990U 17068D   26060.37006009  .00015211  00000+0  45586-3 0  9995
2 42990  97.4337 195.8549 0001015 100.0567 260.0790 15.34591154465766
SKYSAT-C7               
1 42991U 17068E   26060.35984480  .00014380  00000+0  43269-3 0  9994
2 42991  97.4347 196.8269 0007339 129.3858 230.8036 15.34451844465826
SKYSAT-C6               
1 42992U 17068F   26060.34486128  .00013054  00000+0  41816-3 0  9993
2 42992  97.4381 197.1196 0003479 133.0238 227.1295 15.32501402465799
SKYSAT-C12              
1 43797U 18099AR  26060.08207080  .00017943  00000+0  37880-3 0  9998
2 43797  96.9393  87.8707 0004596 160.5716 199.5710 15.45236193405143
SKYSAT-C13              
1 43802U 18099AW  26060.09243390  .00083655  00000+0  55990-3 0  9995
2 43802  96.9429 107.7181 0002964 233.6674 126.4319 15.75034944405811
FLOCK 4Q-16             
1 58271U 23174R   26060.46280433  .00029906  00000+0  64992-3 0  9992
2 58271  97.3880 146.4565 0007808 184.5004 175.6176 15.44266267128924
FLOCK 4Q-11             
1 58273U 23174T   26060.21295375  .00027453  00000+0  58991-3 0  9995
2 58273  97.3918 146.6741 0007493 182.3923 177.7291 15.44620085128891
FLOCK 4Q-36             
1 58274U 23174U   26060.22183349  .00038544  00000+0  67250-3 0  9995
2 58274  97.3905 149.2671 0007703 172.5569 187.5798 15.50579232129065
FLOCK 4Q-12             
1 58275U 23174V   26060.23211744  .00057060  00000+0  99623-3 0  9991
2 58275  97.3902 149.1606 0006278 178.9837 181.1429 15.50483115129081
FLOCK 4Q-28             
1 58280U 23174AA  26060.23164326  .00037543  00000+0  70709-3 0  9998
2 58280  97.3923 148.4140 0007049 177.6150 182.5136 15.48406066129005
FLOCK 4Q-27             
1 58282U 23174AC  26060.48589093  .00037538  00000+0  70738-3 0  9995
2 58282  97.3866 148.2205 0006719 171.5543 188.5822 15.48393096129056
FLOCK 4Q-26             
1 58284U 23174AE  26060.46982402  .00040436  00000+0  71516-3 0  9992
2 58284  97.3921 149.6098 0007114 176.6813 183.4487 15.50189138129101
FLOCK 4Q-31             
1 58285U 23174AF  26060.24015878  .00041405  00000+0  74606-3 0  9993
2 58285  97.3966 149.0177 0007804 178.6093 181.5181 15.49648148129021
FLOCK 4Q-30             
1 58286U 23174AG  26060.22934654  .00043190  00000+0  77181-3 0  9998
2 58286  97.3962 149.1855 0007611 173.8706 186.2640 15.49876984129030
PELICAN-1               
1 58296U 23174AS  26060.25172320  .00042732  00000+0  46941-3 0  9997
2 58296  97.4027 154.6027 0008961 239.6529 120.3844 15.63040788129248
FLOCK 4Q-25             
1 58303U 23174AZ  26060.23496093  .00054959  00000+0  79910-3 0  9996
2 58303  97.3883 150.0091 0005507 161.3114 198.8343 15.55587846129157
FLOCK 4Q-29             
1 58304U 23174BA  26060.51117398  .00038187  00000+0  70737-3 0  9999
2 58304  97.3952 149.0823 0008019 165.9114 194.2362 15.48872233129056
FLOCK 4Q-22             
1 58306U 23174BC  26060.22707323  .00044327  00000+0  75108-3 0  9992
2 58306  97.3863 148.9504 0006877 169.6620 190.4775 15.51384402129085
FLOCK 4Q-23             
1 58307U 23174BD  26060.20087139  .00051097  00000+0  77603-3 0  9991
2 58307  97.3975 150.4331 0007102 167.8493 192.2934 15.54398678129110
FLOCK 4Q-33             
1 58308U 23174BE  26060.46662907  .00034672  00000+0  60630-3 0  9994
2 58308  97.3894 149.1400 0007412 160.6239 199.5296 15.50540151129107
