OBJECT_NAME,OBJECT_ID,EPOCH,MEAN_MOTION,ECCENTRICITY,INCLINATION,RA_OF_ASC_NODE,ARG_OF_PERICENTER,MEAN_ANOMALY,EPHEMERIS_TYPE,CLASSIFICATION_TYPE,NORAD_CAT_ID,ELEMENT_SET_NO,REV_AT_EPOCH,BSTAR,MEAN_MOTION_DOT,MEAN_MOTION_DDOT
SKYSAT-A,2013-066C,2026-03-01T08:45:19.426752,15.12277656,.00208,97.3975,113.1666,330.7689,29.2376,0,U,39418,999,67218,.25412E-3,.4355E-4,0
SKYSAT-B,2014-037D,2026-03-01T07:44:02.628960,14.87684836,.0004156,98.3712,13.2445,269.6779,90.3959,0,U,40072,999,62992,.23219E-3,.2054E-4,0
SKYSAT-C1,2016-040C,2026-03-01T00:39:22.989888,15.34300355,.00041391,96.9717,97.6732,70.9612,289.2081,0,U,41601,999,54127,.31298187E-3,.10326E-3,0
SKYSAT-C4,2016-058B,2026-03-01T11:53:52.520928,15.45033120,.0001013,96.9299,86.9717,71.5354,288.6006,0,U,41771,999,52882,.41863E-3,.197E-3,0
SKYSAT-C5,2016-058C,2026-03-01T02:03:18.305856,15.34092712,.00020094,97.0637,105.5215,85.1273,275.0200,0,U,41772,999,52717,.29568183E-3,.9683E-4,0
SKYSAT-C2,2016-058D,2026-03-01T01:31:54.406560,15.39426096,.00053915,97.0295,86.3588,87.5170,272.6694,0,U,41773,999,52840,.34343709E-3,.13382E-3,0
SKYSAT-C3,2016-058E,2026-03-01T02:10:14.563776,15.47869697,.00015624,96.9191,95.3279,97.2200,262.9229,0,U,41774,999,52936,.43718323E-3,.22692E-3,0
SKYSAT-C11,2017-068A,2026-03-01T09:35:49.676064,15.51795769,.0000742,97.4181,205.1145,86.1740,273.9597,0,U,42987,999,46649,.51978E-3,.3102E-3,0
SKYSAT-C10,2017-068B,2026-03-01T08:59:06.306720,15.32437382,.0001198,97.4316,196.4489,93.1776,266.9602,0,U,42988,999,46583,.43244E-3,.13475E-3,0
SKYSAT-C9,2017-068C,2026-03-01T07:46:38.667360,15.38560862,.0009554,97.4240,196.3648,160.4510,199.7104,0,U,42989,999,46615,.47788E-3,.18155E-3,0
SKYSAT-C8,2017-068D,2026-03-01T08:52:53.191776,15.34591154,.0001015,97.4337,195.8549,100.0567,260.0790,0,U,42990,999,46576,.45586E-3,.15211E-3,0
SKYSAT-C7,2017-068E,2026-03-01T08:38:10.590720,15.34451844,.0007339,97.4347,196.8269,129.3858,230.8036,0,U,42991,999,46582,.43269E-3,.1438E-3,0
SKYSAT-C6,2017-068F,2026-03-01T08:16:36.014592,15.32501402,.0003479,97.4381,197.1196,133.0238,227.1295,0,U,42992,999,46579,.41816E-3,.13054E-3,0
SKYSAT-C12,2018-099AR,2026-03-01T01:58:10.917120,15.45236193,.00045964,96.9393,87.8707,160.5716,199.5710,0,U,43797,999,40514,.37879803E-3,.17943E-3,0
SKYSAT-C13,2018-099AW,2026-03-01T02:13:06.288960,15.75034944,.00029643,96.9429,107.7181,233.6674,126.4319,0,U,43802,999,40581,.55990376E-3,.83655E-3,0
FLOCK 4Q-16,2023-174R,2026-03-01T11:06:26.294112,15.44266267,.0007808,97.3880,146.4565,184.5004,175.6176,0,U,58271,999,12892,.64992E-3,.29906E-3,0
FLOCK 4Q-11,2023-174T,2026-03-01T05:06:39.204000,15.44620085,.0007493,97.3918,146.6741,182.3923,177.7291,0,U,58273,999,12889,.58991E-3,.27453E-3,0
FLOCK 4Q-36,2023-174U,2026-03-01T05:19:26.413536,15.50579232,.0007703,97.3905,149.2671,172.5569,187.5798,0,U,58274,999,12906,.6725E-3,.38544E-3,0
FLOCK 4Q-12,2023-174V,2026-03-01T05:34:14.946816,15.50483115,.0006278,97.3902,149.1606,178.9837,181.1429,0,U,58275,999,12908,.99623E-3,.5706E-3,0
FLOCK 4Q-28,2023-174AA,2026-03-01T05:33:33.977664,15.48406066,.0007049,97.3923,148.4140,177.6150,182.5136,0,U,58280,999,12900,.70709E-3,.37543E-3,0
FLOCK 4Q-27,2023-174AC,2026-03-01T11:39:40.976352,15.48393096,.0006719,97.3866,148.2205,171.5543,188.5822,0,U,58282,999,12905,.70738E-3,.37538E-3,0
FLOCK 4Q-26,2023-174AE,2026-03-01T11:16:32.795328,15.50189138,.0007114,97.3921,149.6098,176.6813,183.4487,0,U,58284,999,12910,.71516E-3,.40436E-3,0
FLOCK 4Q-31,2023-174AF,2026-03-01T05:45:49.718592,15.49648148,.0007804,97.3966,149.0177,178.6093,181.5181,0,U,58285,999,12902,.74606E-3,.41405E-3,0
FLOCK 4Q-30,2023-174AG,2026-03-01T05:30:15.541056,15.49876984,.0007611,97.3962,149.1855,173.8706,186.2640,0,U,58286,999,12903,.77181E-3,.4319E-3,0
PELICAN-1,2023-174AS,2026-03-01T06:02:28.884480,15.63040788,.0008961,97.4027,154.6027,239.6529,120.3844,0,U,58296,999,12924,.46941E-3,.42732E-3,0
FLOCK 4Q-25,2023-174AZ,2026-03-01T05:38:20.624352,15.55587846,.0005507,97.3883,150.0091,161.3114,198.8343,0,U,58303,999,12915,.7991E-3,.54959E-3,0
FLOCK 4Q-29,2023-174BA,2026-03-01T12:16:05.431872,15.48872233,.0008019,97.3952,149.0823,165.9114,194.2362,0,U,58304,999,12905,.70737E-3,.38187E-3,0
FLOCK 4Q-22,2023-174BC,2026-03-01T05:26:59.127072,15.51384402,.0006877,97.3863,148.9504,169.6620,190.4775,0,U,58306,999,12908,.75108E-3,.44327E-3,0
FLOCK 4Q-23,2023-174BD,2026-03-01T04:49:15.288096,15.54398678,.0007102,97.3975,150.4331,167.8493,192.2934,0,U,58307,999,12911,.77603E-3,.51097E-3,0
FLOCK 4Q-33,2023-174BE,2026-03-01T11:11:56.751648,15.50540151,.0007412,97.3894,149.1400,160.6239,199.5296,0,U,58308,999,12910,.6063E-3,.34672E-3,0
